[{"OBJECT_NAME":"OBJECT D","OBJECT_ID":"2024-092D","EPOCH":"2026-03-09T21:12:33.501312","MEAN_MOTION":15.33078357,"ECCENTRICITY":0.00083397,"INCLINATION":97.6418,"RA_OF_ASC_NODE":198.2302,"ARG_OF_PERICENTER":141.9853,"MEAN_ANOMALY":218.1979,"EPHEMERIS_TYPE":0,"CLASSIFICATION_TYPE":"U","NORAD_CAT_ID":59776,"ELEMENT_SET_NO":999,"REV_AT_EPOCH":10051,"BSTAR":0.00076511005,"MEAN_MOTION_DOT":0.00024443,"MEAN_MOTION_DDOT":0},{"OBJECT_NAME":"STARLINK-35046","OBJECT_ID":"2025-212AB","EPOCH":"2026-03-09T01:03:36.295776","MEAN_MOTION":15.30193926,"ECCENTRICITY":0.00011867,"INCLINATION":53.1616,"RA_OF_ASC_NODE":348.7454,"ARG_OF_PERICENTER":87.8,"MEAN_ANOMALY":272.3137,"EPHEMERIS_TYPE":0,"CLASSIFICATION_TYPE":"U","NORAD_CAT_ID":65701,"ELEMENT_SET_NO":999,"REV_AT_EPOCH":2714,"BSTAR":0.00069176417,"MEAN_MOTION_DOT":0.00020181,"MEAN_MOTION_DDOT":0}]
